IDEFIX & ARIANE 42P R/B 
1 27422U 02021B   25357.56121244  .00000283  00000+0  12408-3 0  9999
2 27422  98.5801 292.1123 0012802  54.4744 305.7631 14.30957653233131
AQUA                    
1 27424U 02022A   25357.83892882  .00000980  00000+0  20598-3 0  9998
2 27424  98.4053 318.8992 0001509 108.9448 272.2576 14.61824731257652
CZ-4B R/B               
1 27432U 02024C   25357.11292271  .00000066  00000+0  57331-4 0  9997
2 27432  98.8984  45.8479 0049318 239.8816 174.4513 14.14530059218418
MIDORI II (ADEOS-II)    
1 27597U 02056A   25356.86664229  .00000245  00000+0  11434-3 0  9993
2 27597  98.7653 309.8768 0000712 148.9986 211.1237 14.29212003199321
H-2A R/B                
1 27601U 02056E   25357.83947133  .00000365  00000+0  14258-3 0  9995
2 27601  98.3082 316.1550 0070961  28.4904 352.7982 14.33685310203240
CZ-4B R/B               
1 28059U 03049C   25357.73682058  .00000378  00000+0  98325-4 0  9999
2 28059  98.6797 344.7165 0049367 103.1668 257.5042 14.54919286175553
CZ-2C R/B               
1 28222U 04012C   25357.60838323  .00037034  00000+0  52347-3 0  9998
2 28222  97.7398  51.1328 0016555 227.7549 132.2301 15.56297790192419
SL-16 R/B               
1 28353U 04021B   25357.79425595  .00000086  00000+0  69516-4 0  9990
2 28353  71.0004  31.7670 0004689 181.4738 178.6371 14.14579213112103
CZ-4B R/B               
1 28415U 04035C   25357.04310018  .00009343  00000+0  34458-3 0  9996
2 28415  97.3590  27.2497 0031647 239.0694 120.7433 15.27529993168209
CZ-2C R/B               
1 28480U 04046B   25357.33661765  .00000252  00000+0  10878-3 0  9990
2 28480  98.1997 272.0562 0140000  21.1428 339.5463 14.26946599 97615
ARIANE 5 R/B            
1 28499U 04049H   25357.70287056  .00001187  00000+0  13788-3 0  9992
2 28499  98.2528 158.3776 0083447 236.9225 122.3957 14.85038465134517
CZ-2D R/B               
1 28738U 05024B   25356.77058538  .00031293  00000+0  48889-3 0  9990
2 28738  97.3624   4.4840 0003835 326.9384  33.1629 15.53739982127810
