CCSDS_OMM_VERS = 2.0
CREATION_DATE  = 
ORIGINATOR     = 

OBJECT_NAME    = IDEFIX & ARIANE 42P R/B
OBJECT_ID      = 2002-021B
CENTER_NAME    = EARTH
REF_FRAME      = TEME
TIME_SYSTEM    = UTC
MEAN_ELEMENT_THEORY = SGP/SGP4

EPOCH          = 2025-12-23T13:28:08.754816
MEAN_MOTION    = 14.30957653
ECCENTRICITY   = .0012802
INCLINATION    = 98.5801
RA_OF_ASC_NODE = 292.1123
ARG_OF_PERICENTER = 54.4744
MEAN_ANOMALY   = 305.7631

EPHEMERIS_TYPE = 0
CLASSIFICATION_TYPE = U
NORAD_CAT_ID   = 27422
ELEMENT_SET_NO = 999
REV_AT_EPOCH   = 23313
BSTAR          = .12408E-3
MEAN_MOTION_DOT = .283E-5
MEAN_MOTION_DDOT = 0

CCSDS_OMM_VERS = 2.0
CREATION_DATE  = 
ORIGINATOR     = 

OBJECT_NAME    = AQUA
OBJECT_ID      = 2002-022A
CENTER_NAME    = EARTH
REF_FRAME      = TEME
TIME_SYSTEM    = UTC
MEAN_ELEMENT_THEORY = SGP/SGP4

EPOCH          = 2025-12-23T20:08:03.450048
MEAN_MOTION    = 14.61824731
ECCENTRICITY   = .0001509
INCLINATION    = 98.4053
RA_OF_ASC_NODE = 318.8992
ARG_OF_PERICENTER = 108.9448
MEAN_ANOMALY   = 272.2576

EPHEMERIS_TYPE = 0
CLASSIFICATION_TYPE = U
NORAD_CAT_ID   = 27424
ELEMENT_SET_NO = 999
REV_AT_EPOCH   = 25765
BSTAR          = .20598E-3
MEAN_MOTION_DOT = .98E-5
MEAN_MOTION_DDOT = 0

CCSDS_OMM_VERS = 2.0
CREATION_DATE  = 
ORIGINATOR     = 

OBJECT_NAME    = CZ-4B R/B
OBJECT_ID      = 2002-024C
CENTER_NAME    = EARTH
REF_FRAME      = TEME
TIME_SYSTEM    = UTC
MEAN_ELEMENT_THEORY = SGP/SGP4

EPOCH          = 2025-12-23T02:42:36.522144
MEAN_MOTION    = 14.14530059
ECCENTRICITY   = .00493182
INCLINATION    = 98.8984
RA_OF_ASC_NODE = 45.8479
ARG_OF_PERICENTER = 239.8816
MEAN_ANOMALY   = 174.4513

EPHEMERIS_TYPE = 0
CLASSIFICATION_TYPE = U
NORAD_CAT_ID   = 27432
ELEMENT_SET_NO = 999
REV_AT_EPOCH   = 21841
BSTAR          = .57330613E-4
MEAN_MOTION_DOT = .66E-6
MEAN_MOTION_DDOT = 0

CCSDS_OMM_VERS = 2.0
CREATION_DATE  = 
ORIGINATOR     = 

OBJECT_NAME    = MIDORI II (ADEOS-II)
OBJECT_ID      = 2002-056A
CENTER_NAME    = EARTH
REF_FRAME      = TEME
TIME_SYSTEM    = UTC
MEAN_ELEMENT_THEORY = SGP/SGP4

EPOCH          = 2025-12-22T20:47:57.893856
MEAN_MOTION    = 14.29212003
ECCENTRICITY   = .0000712
INCLINATION    = 98.7653
RA_OF_ASC_NODE = 309.8768
ARG_OF_PERICENTER = 148.9986
MEAN_ANOMALY   = 211.1237

EPHEMERIS_TYPE = 0
CLASSIFICATION_TYPE = U
NORAD_CAT_ID   = 27597
ELEMENT_SET_NO = 999
REV_AT_EPOCH   = 19932
BSTAR          = .11434E-3
MEAN_MOTION_DOT = .245E-5
MEAN_MOTION_DDOT = 0

CCSDS_OMM_VERS = 2.0
CREATION_DATE  = 
ORIGINATOR     = 

OBJECT_NAME    = H-2A R/B
OBJECT_ID      = 2002-056E
CENTER_NAME    = EARTH
REF_FRAME      = TEME
TIME_SYSTEM    = UTC
MEAN_ELEMENT_THEORY = SGP/SGP4

EPOCH          = 2025-12-23T20:08:50.322912
MEAN_MOTION    = 14.33685310
ECCENTRICITY   = .0070961
INCLINATION    = 98.3082
RA_OF_ASC_NODE = 316.1550
ARG_OF_PERICENTER = 28.4904
MEAN_ANOMALY   = 352.7982

EPHEMERIS_TYPE = 0
CLASSIFICATION_TYPE = U
NORAD_CAT_ID   = 27601
ELEMENT_SET_NO = 999
REV_AT_EPOCH   = 20324
BSTAR          = .14258E-3
MEAN_MOTION_DOT = .365E-5
MEAN_MOTION_DDOT = 0

CCSDS_OMM_VERS = 2.0
CREATION_DATE  = 
ORIGINATOR     = 

OBJECT_NAME    = CZ-4B R/B
OBJECT_ID      = 2003-049C
CENTER_NAME    = EARTH
REF_FRAME      = TEME
TIME_SYSTEM    = UTC
MEAN_ELEMENT_THEORY = SGP/SGP4

EPOCH          = 2025-12-23T17:41:01.298112
MEAN_MOTION    = 14.54919286
ECCENTRICITY   = .0049367
INCLINATION    = 98.6797
RA_OF_ASC_NODE = 344.7165
ARG_OF_PERICENTER = 103.1668
MEAN_ANOMALY   = 257.5042

EPHEMERIS_TYPE = 0
CLASSIFICATION_TYPE = U
NORAD_CAT_ID   = 28059
ELEMENT_SET_NO = 999
REV_AT_EPOCH   = 17555
BSTAR          = .98325E-4
MEAN_MOTION_DOT = .378E-5
MEAN_MOTION_DDOT = 0

CCSDS_OMM_VERS = 2.0
CREATION_DATE  = 
ORIGINATOR     = 

OBJECT_NAME    = CZ-2C R/B
OBJECT_ID      = 2004-012C
CENTER_NAME    = EARTH
REF_FRAME      = TEME
TIME_SYSTEM    = UTC
MEAN_ELEMENT_THEORY = SGP/SGP4

EPOCH          = 2025-12-23T14:36:04.311072
MEAN_MOTION    = 15.56297790
ECCENTRICITY   = .0016555
INCLINATION    = 97.7398
RA_OF_ASC_NODE = 51.1328
ARG_OF_PERICENTER = 227.7549
MEAN_ANOMALY   = 132.2301

EPHEMERIS_TYPE = 0
CLASSIFICATION_TYPE = U
NORAD_CAT_ID   = 28222
ELEMENT_SET_NO = 999
REV_AT_EPOCH   = 19241
BSTAR          = .52347E-3
MEAN_MOTION_DOT = .37034E-3
MEAN_MOTION_DDOT = 0

CCSDS_OMM_VERS = 2.0
CREATION_DATE  = 
ORIGINATOR     = 

OBJECT_NAME    = SL-16 R/B
OBJECT_ID      = 2004-021B
CENTER_NAME    = EARTH
REF_FRAME      = TEME
TIME_SYSTEM    = UTC
MEAN_ELEMENT_THEORY = SGP/SGP4

EPOCH          = 2025-12-23T19:03:43.714080
MEAN_MOTION    = 14.14579213
ECCENTRICITY   = .0004689
INCLINATION    = 71.0004
RA_OF_ASC_NODE = 31.7670
ARG_OF_PERICENTER = 181.4738
MEAN_ANOMALY   = 178.6371

EPHEMERIS_TYPE = 0
CLASSIFICATION_TYPE = U
NORAD_CAT_ID   = 28353
ELEMENT_SET_NO = 999
REV_AT_EPOCH   = 11210
BSTAR          = .69516E-4
MEAN_MOTION_DOT = .86E-6
MEAN_MOTION_DDOT = 0

CCSDS_OMM_VERS = 2.0
CREATION_DATE  = 
ORIGINATOR     = 

OBJECT_NAME    = CZ-4B R/B
OBJECT_ID      = 2004-035C
CENTER_NAME    = EARTH
REF_FRAME      = TEME
TIME_SYSTEM    = UTC
MEAN_ELEMENT_THEORY = SGP/SGP4

EPOCH          = 2025-12-23T01:02:03.855552
MEAN_MOTION    = 15.27529993
ECCENTRICITY   = .0031647
INCLINATION    = 97.3590
RA_OF_ASC_NODE = 27.2497
ARG_OF_PERICENTER = 239.0694
MEAN_ANOMALY   = 120.7433

EPHEMERIS_TYPE = 0
CLASSIFICATION_TYPE = U
NORAD_CAT_ID   = 28415
ELEMENT_SET_NO = 999
REV_AT_EPOCH   = 16820
BSTAR          = .34458219E-3
MEAN_MOTION_DOT = .9343E-4
MEAN_MOTION_DDOT = 0

CCSDS_OMM_VERS = 2.0
CREATION_DATE  = 
ORIGINATOR     = 

OBJECT_NAME    = CZ-2C R/B
OBJECT_ID      = 2004-046B
CENTER_NAME    = EARTH
REF_FRAME      = TEME
TIME_SYSTEM    = UTC
MEAN_ELEMENT_THEORY = SGP/SGP4

EPOCH          = 2025-12-23T08:04:43.764960
MEAN_MOTION    = 14.26946599
ECCENTRICITY   = .014
INCLINATION    = 98.1997
RA_OF_ASC_NODE = 272.0562
ARG_OF_PERICENTER = 21.1428
MEAN_ANOMALY   = 339.5463

EPHEMERIS_TYPE = 0
CLASSIFICATION_TYPE = U
NORAD_CAT_ID   = 28480
ELEMENT_SET_NO = 999
REV_AT_EPOCH   = 9761
BSTAR          = .10878E-3
MEAN_MOTION_DOT = .252E-5
MEAN_MOTION_DDOT = 0

CCSDS_OMM_VERS = 2.0
CREATION_DATE  = 
ORIGINATOR     = 

OBJECT_NAME    = ARIANE 5 R/B
OBJECT_ID      = 2004-049H
CENTER_NAME    = EARTH
REF_FRAME      = TEME
TIME_SYSTEM    = UTC
MEAN_ELEMENT_THEORY = SGP/SGP4

EPOCH          = 2025-12-23T16:52:08.016384
MEAN_MOTION    = 14.85038465
ECCENTRICITY   = .0083447
INCLINATION    = 98.2528
RA_OF_ASC_NODE = 158.3776
ARG_OF_PERICENTER = 236.9225
MEAN_ANOMALY   = 122.3957

EPHEMERIS_TYPE = 0
CLASSIFICATION_TYPE = U
NORAD_CAT_ID   = 28499
ELEMENT_SET_NO = 999
REV_AT_EPOCH   = 13451
BSTAR          = .13788E-3
MEAN_MOTION_DOT = .1187E-4
MEAN_MOTION_DDOT = 0

CCSDS_OMM_VERS = 2.0
CREATION_DATE  = 
ORIGINATOR     = 

OBJECT_NAME    = CZ-2D R/B
OBJECT_ID      = 2005-024B
CENTER_NAME    = EARTH
REF_FRAME      = TEME
TIME_SYSTEM    = UTC
MEAN_ELEMENT_THEORY = SGP/SGP4

EPOCH          = 2025-12-22T18:29:38.576832
MEAN_MOTION    = 15.53739982
ECCENTRICITY   = .0003835
INCLINATION    = 97.3624
RA_OF_ASC_NODE = 4.4840
ARG_OF_PERICENTER = 326.9384
MEAN_ANOMALY   = 33.1629

EPHEMERIS_TYPE = 0
CLASSIFICATION_TYPE = U
NORAD_CAT_ID   = 28738
ELEMENT_SET_NO = 999
REV_AT_EPOCH   = 12781
BSTAR          = .48888958E-3
MEAN_MOTION_DOT = .31293E-3
MEAN_MOTION_DDOT = 0

